ONEWEB-0425             
1 51628U 22012G   26159.40287006 -.00000006  00000+0 -52714-4 0  9999
2 51628  87.8845  38.0167 0002130  78.7733 281.3634 13.10376705208178
ONEWEB-0428             
1 51629U 22012H   26159.38292421 -.00000623  00000+0 -18207-2 0  9996
2 51629  87.8840  38.0280 0001796  80.2004 279.9326 13.10372153208136
ONEWEB-0431             
1 51630U 22012J   26159.35292987  .00000508  00000+0  14180-2 0  9998
2 51630  87.8842  38.0259 0001349  97.1691 262.9590 13.10371252208188
ONEWEB-0434             
1 51631U 22012K   26159.40632351  .00000290  00000+0  79478-3 0  9998
2 51631  87.8848  38.0404 0002424  75.6033 284.5363 13.10375112208179
ONEWEB-0435             
1 51632U 22012L   26159.41447002  .00000644  00000+0  18097-2 0  9999
2 51632  87.8841  38.0257 0001456  76.8038 283.3251 13.10372369208164
ONEWEB-0436             
1 51633U 22012M   26159.85923330  .00000085  00000+0  18581-3 0  9999
2 51633  87.9145   7.5019 0001607  85.2771 274.8544 13.17648053212580
ONEWEB-0438             
1 51634U 22012N   26159.39787678 -.00000178  00000+0 -54729-3 0  9991
2 51634  87.8842  38.0319 0002023  80.8382 279.2974 13.10375574208194
ONEWEB-0439             
1 51635U 22012P   26159.40119899  .00000033  00000+0  59030-4 0  9997
2 51635  87.8843  38.0187 0001851  77.5817 282.5518 13.10375427208179
ONEWEB-0442             
1 51636U 22012Q   26159.85164688 -.00000015  00000+0 -71594-4 0  9994
2 51636  87.9140   7.5369 0002424  86.2081 273.9328 13.17648400212574
ONEWEB-0443             
1 51637U 22012R   26159.49136560  .00000029  00000+0  40429-4 0  9999
2 51637  87.9139   7.6094 0001898  75.8186 284.3156 13.17648556212570
ONEWEB-0444             
1 51638U 22012S   26159.39123189 -.00000452  00000+0 -13319-2 0  9990
2 51638  87.8841  38.0195 0001885  76.2253 283.9084 13.10374675208184
ONEWEB-0445             
1 51639U 22012T   26159.41283154  .00000543  00000+0  15204-2 0  9997
2 51639  87.8854  38.0025 0001780  88.0222 272.1109 13.10374220208197
ONEWEB-0446             
1 51640U 22012U   26159.38956589 -.00000519  00000+0 -15228-2 0  9995
2 51640  87.8842  38.0365 0001857  86.0879 274.0461 13.10373894208170
ONEWEB-0448             
1 51641U 22012V   26159.39455863 -.00000287  00000+0 -85927-3 0  9992
2 51641  87.8843  38.0323 0001790  78.4808 281.6521 13.10375398208148
ONEWEB-0449             
1 51642U 22012W   26159.39953924 -.00000094  00000+0 -30470-3 0  9993
2 51642  87.8846  38.0163 0002224  76.8085 283.3290 13.10375604208159
ONEWEB-0451             
1 51643U 22012X   26159.85587142  .00000014  00000+0  25500-5 0  9990
2 51643  87.9149   7.4999 0002053  83.5238 276.6127 13.17648237212565
ONEWEB-0452             
1 51644U 22012Y   26159.85417155  .00000018  00000+0  13830-4 0  9993
2 51644  87.9137   7.5379 0001976  78.2361 281.8992 13.17648368212571
ONEWEB-0456             
1 51646U 22012AA  26159.18041639  .00000500  00000+0  13962-2 0  9991
2 51646  87.8855  38.0465 0001675  77.9138 282.2177 13.10373846208167
ONEWEB-0457             
1 51647U 22012AB  26159.38610242 -.00000669  00000+0 -19537-2 0  9998
2 51647  87.8839  38.0247 0002105  90.8596 269.2772 13.10372622208199
ONEWEB-0458             
1 51648U 22012AC  26159.40784731 -.00000967  00000+0 -28063-2 0  9992
2 51648  87.8857  38.0074 0001979  75.9987 284.1360 13.10382285208155
ONEWEB-0461             
1 51649U 22012AD  26159.64829649  .00000064  00000+0  13099-3 0  9997
2 51649  87.9149   7.5550 0001898  89.6796 270.4553 13.17647809212768
ONEWEB-0463             
1 51650U 22012AE  26159.85755465  .00000007  00000+0 -14290-4 0  9999
2 51650  87.9137   7.5371 0001940  90.8814 269.2540 13.17648155212577
ONEWEB-0464             
1 51651U 22012AF  26159.17545156  .00000248  00000+0  67343-3 0  9991
2 51651  87.8841  38.0761 0001712  72.7071 287.4243 13.10375504208140
ONEWEB-0468             
1 51652U 22012AG  26159.71659877  .00000389  00000+0  10785-2 0  9991
2 51652  87.8842  37.9625 0001630  70.9376 289.1928 13.10374926208197
ONEWEB-0473             
1 51653U 22012AH  26159.39621370 -.00000248  00000+0 -74660-3 0  9992
2 51653  87.8843  38.0279 0001850  76.8413 283.2921 13.10375327208157
ONEWEB-0474             
1 51654U 22012AJ  26159.38790484 -.00000530  00000+0 -15550-2 0  9991
2 51654  87.8852  38.0129 0001736  71.3773 288.7543 13.10373524208140
ONEWEB-0475             
1 51655U 22012AK  26159.86936473  .00000062  00000+0  12575-3 0  9998
2 51655  87.9140   7.5275 0001758  65.9620 294.1695 13.17647998212598
ONEWEB-0490             
1 54113U 22138A   26159.79473252  .00000025  00000+0  29077-4 0  9997
2 54113  87.9171 306.6387 0001645  97.3543 262.7776 13.19724690175720
ONEWEB-0492             
1 54114U 22138B   26159.44093277  .00000152  00000+0  34821-3 0  9998
2 54114  87.9164 306.7117 0001715 104.1343 255.9980 13.19725908175687
ONEWEB-0495             
1 54115U 22138C   26159.79789161 -.00000019  00000+0 -78663-4 0  9998
2 54115  87.9163 306.6427 0001159  94.9221 265.2044 13.19724533175715
ONEWEB-0497             
1 54116U 22138D   26159.81052807  .00000048  00000+0  86697-4 0  9998
2 54116  87.9168 306.6320 0001767  98.3803 261.7530 13.19724332175709
