OBJECT_NAME,OBJECT_ID,EPOCH,MEAN_MOTION,ECCENTRICITY,INCLINATION,RA_OF_ASC_NODE,ARG_OF_PERICENTER,MEAN_ANOMALY,EPHEMERIS_TYPE,CLASSIFICATION_TYPE,NORAD_CAT_ID,ELEMENT_SET_NO,REV_AT_EPOCH,BSTAR,MEAN_MOTION_DOT,MEAN_MOTION_DDOT
ONEWEB-0425,2022-012G,2026-06-08T09:40:07.973184,13.10376705,.000213,87.8845,38.0167,78.7733,281.3634,0,U,51628,999,20817,-.52714E-4,-.6E-7,0
ONEWEB-0428,2022-012H,2026-06-08T09:11:24.650880,13.10372153,.0001796,87.8840,38.0280,80.2004,279.9326,0,U,51629,999,20813,-.18207E-2,-.623E-5,0
ONEWEB-0431,2022-012J,2026-06-08T08:28:13.139904,13.10371252,.000135,87.8842,38.0259,97.1691,262.9590,0,U,51630,999,20818,.1418E-2,.508E-5,0
ONEWEB-0434,2022-012K,2026-06-08T09:45:06.351264,13.10375112,.0002425,87.8848,38.0404,75.6033,284.5363,0,U,51631,999,20817,.79478E-3,.29E-5,0
ONEWEB-0435,2022-012L,2026-06-08T09:56:50.208864,13.10372369,.0001456,87.8841,38.0257,76.8038,283.3251,0,U,51632,999,20816,.18097E-2,.644E-5,0
ONEWEB-0436,2022-012M,2026-06-08T20:37:17.757120,13.17648053,.0001607,87.9145,7.5019,85.2771,274.8544,0,U,51633,999,21258,.18581E-3,.85E-6,0
ONEWEB-0438,2022-012N,2026-06-08T09:32:56.552928,13.10375574,.0002024,87.8842,38.0319,80.8382,279.2974,0,U,51634,999,20819,-.54729E-3,-.178E-5,0
ONEWEB-0439,2022-012P,2026-06-08T09:37:43.591872,13.10375427,.0001851,87.8843,38.0187,77.5817,282.5518,0,U,51635,999,20817,.5903E-4,.33E-6,0
ONEWEB-0442,2022-012Q,2026-06-08T20:26:22.290432,13.17648400,.0002424,87.9140,7.5369,86.2081,273.9328,0,U,51636,999,21257,-.71594E-4,-.15E-6,0
ONEWEB-0443,2022-012R,2026-06-08T11:47:33.986976,13.17648556,.0001898,87.9139,7.6094,75.8186,284.3156,0,U,51637,999,21257,.40429E-4,.29E-6,0
ONEWEB-0444,2022-012S,2026-06-08T09:23:22.435296,13.10374675,.0001885,87.8841,38.0195,76.2253,283.9084,0,U,51638,999,20818,-.13319E-2,-.452E-5,0
ONEWEB-0445,2022-012T,2026-06-08T09:54:28.645056,13.10374220,.0001781,87.8854,38.0025,88.0222,272.1109,0,U,51639,999,20819,.15204E-2,.543E-5,0
ONEWEB-0446,2022-012U,2026-06-08T09:20:58.492032,13.10373894,.0001857,87.8842,38.0365,86.0879,274.0461,0,U,51640,999,20817,-.15228E-2,-.519E-5,0
ONEWEB-0448,2022-012V,2026-06-08T09:28:09.864768,13.10375398,.0001791,87.8843,38.0323,78.4808,281.6521,0,U,51641,999,20814,-.85927E-3,-.287E-5,0
ONEWEB-0449,2022-012W,2026-06-08T09:35:20.190336,13.10375604,.0002224,87.8846,38.0163,76.8085,283.3290,0,U,51642,999,20815,-.3047E-3,-.94E-6,0
ONEWEB-0451,2022-012X,2026-06-08T20:32:27.290688,13.17648237,.0002053,87.9149,7.4999,83.5238,276.6127,0,U,51643,999,21256,.255E-5,.14E-6,0
ONEWEB-0452,2022-012Y,2026-06-08T20:30:00.421920,13.17648368,.0001976,87.9137,7.5379,78.2361,281.8992,0,U,51644,999,21257,.1383E-4,.18E-6,0
ONEWEB-0456,2022-012AA,2026-06-08T04:19:47.976096,13.10373846,.0001675,87.8855,38.0465,77.9138,282.2177,0,U,51646,999,20816,.13962E-2,.5E-5,0
ONEWEB-0457,2022-012AB,2026-06-08T09:15:59.249088,13.10372622,.0002106,87.8839,38.0247,90.8596,269.2772,0,U,51647,999,20819,-.19537E-2,-.669E-5,0
ONEWEB-0458,2022-012AC,2026-06-08T09:47:18.006720,13.10382285,.0001979,87.8857,38.0074,75.9987,284.1360,0,U,51648,999,20815,-.28063E-2,-.967E-5,0
ONEWEB-0461,2022-012AD,2026-06-08T15:33:32.816736,13.17647809,.0001898,87.9149,7.5550,89.6796,270.4553,0,U,51649,999,21276,.13099E-3,.64E-6,0
ONEWEB-0463,2022-012AE,2026-06-08T20:34:52.721760,13.17648155,.000194,87.9137,7.5371,90.8814,269.2540,0,U,51650,999,21257,-.1429E-4,.7E-7,0
ONEWEB-0464,2022-012AF,2026-06-08T04:12:39.014784,13.10375504,.0001712,87.8841,38.0761,72.7071,287.4243,0,U,51651,999,20814,.67343E-3,.248E-5,0
ONEWEB-0468,2022-012AG,2026-06-08T17:11:54.133728,13.10374926,.000163,87.8842,37.9625,70.9376,289.1928,0,U,51652,999,20819,.10785E-2,.389E-5,0
ONEWEB-0473,2022-012AH,2026-06-08T09:30:32.862816,13.10375327,.000185,87.8843,38.0279,76.8413,283.2921,0,U,51653,999,20815,-.7466E-3,-.248E-5,0
ONEWEB-0474,2022-012AJ,2026-06-08T09:18:34.978176,13.10373524,.0001736,87.8852,38.0129,71.3773,288.7543,0,U,51654,999,20814,-.1555E-2,-.53E-5,0
ONEWEB-0475,2022-012AK,2026-06-08T20:51:53.112672,13.17647998,.0001758,87.9140,7.5275,65.9620,294.1695,0,U,51655,999,21259,.12575E-3,.62E-6,0
ONEWEB-0490,2022-138A,2026-06-08T19:04:24.889728,13.19724690,.0001645,87.9171,306.6387,97.3543,262.7776,0,U,54113,999,17572,.29077E-4,.25E-6,0
ONEWEB-0492,2022-138B,2026-06-08T10:34:56.591328,13.19725908,.0001715,87.9164,306.7117,104.1343,255.9980,0,U,54114,999,17568,.34821E-3,.152E-5,0
ONEWEB-0495,2022-138C,2026-06-08T19:08:57.835104,13.19724533,.0001159,87.9163,306.6427,94.9221,265.2044,0,U,54115,999,17571,-.78663E-4,-.19E-6,0
ONEWEB-0497,2022-138D,2026-06-08T19:27:09.625248,13.19724332,.0001767,87.9168,306.6320,98.3803,261.7530,0,U,54116,999,17570,.86697E-4,.48E-6,0
